[{"OBJECT_NAME":"QIANFAN-35","OBJECT_ID":"2024-185S","EPOCH":"2026-03-06T06:59:58.030368","MEAN_MOTION":14.28120428,"ECCENTRICITY":0.00074015,"INCLINATION":88.9746,"RA_OF_ASC_NODE":67.0521,"ARG_OF_PERICENTER":30.2742,"MEAN_ANOMALY":329.8879,"EPHEMERIS_TYPE":0,"CLASSIFICATION_TYPE":"U","NORAD_CAT_ID":61568,"ELEMENT_SET_NO":999,"REV_AT_EPOCH":8210,"BSTAR":0.0004656949,"MEAN_MOTION_DOT":1.172e-5,"MEAN_MOTION_DDOT":0},{"OBJECT_NAME":"QIANFAN-36","OBJECT_ID":"2024-185T","EPOCH":"2026-03-06T07:07:29.465184","MEAN_MOTION":13.55613874,"ECCENTRICITY":0.00070519,"INCLINATION":88.9718,"RA_OF_ASC_NODE":72.3237,"ARG_OF_PERICENTER":144.6227,"MEAN_ANOMALY":215.5396,"EPHEMERIS_TYPE":0,"CLASSIFICATION_TYPE":"U","NORAD_CAT_ID":61569,"ELEMENT_SET_NO":999,"REV_AT_EPOCH":7924,"BSTAR":0.00015612396,"MEAN_MOTION_DOT":1.21e-6,"MEAN_MOTION_DDOT":0},{"OBJECT_NAME":"QIANFAN-37","OBJECT_ID":"2024-232B","EPOCH":"2026-03-06T05:46:04.913760","MEAN_MOTION":13.51005404,"ECCENTRICITY":0.00017316,"INCLINATION":89.0054,"RA_OF_ASC_NODE":32.8952,"ARG_OF_PERICENTER":97.2408,"MEAN_ANOMALY":262.894,"EPHEMERIS_TYPE":0,"CLASSIFICATION_TYPE":"U","NORAD_CAT_ID":62238,"ELEMENT_SET_NO":999,"REV_AT_EPOCH":11044,"BSTAR":0.00012255849,"MEAN_MOTION_DOT":9.1e-7,"MEAN_MOTION_DDOT":0},{"OBJECT_NAME":"QIANFAN-38","OBJECT_ID":"2024-232C","EPOCH":"2026-03-06T04:34:54.494400","MEAN_MOTION":13.51003973,"ECCENTRICITY":0.00133697,"INCLINATION":89.006,"RA_OF_ASC_NODE":32.8217,"ARG_OF_PERICENTER":321.5891,"MEAN_ANOMALY":38.4307,"EPHEMERIS_TYPE":0,"CLASSIFICATION_TYPE":"U","NORAD_CAT_ID":62239,"ELEMENT_SET_NO":999,"REV_AT_EPOCH":11049,"BSTAR":0.00012517433,"MEAN_MOTION_DOT":9.3e-7,"MEAN_MOTION_DDOT":0},{"OBJECT_NAME":"QIANFAN-39","OBJECT_ID":"2024-232D","EPOCH":"2026-03-06T05:48:46.959552","MEAN_MOTION":14.25437056,"ECCENTRICITY":0.00166524,"INCLINATION":89.0059,"RA_OF_ASC_NODE":27.7567,"ARG_OF_PERICENTER":157.0516,"MEAN_ANOMALY":203.1425,"EPHEMERIS_TYPE":0,"CLASSIFICATION_TYPE":"U","NORAD_CAT_ID":62240,"ELEMENT_SET_NO":999,"REV_AT_EPOCH":11328,"BSTAR":0.00021667152,"MEAN_MOTION_DOT":5.26e-6,"MEAN_MOTION_DDOT":0},{"OBJECT_NAME":"QIANFAN-40","OBJECT_ID":"2024-232E","EPOCH":"2026-03-06T05:22:18.415200","MEAN_MOTION":13.51003178,"ECCENTRICITY":0.00126768,"INCLINATION":89.0089,"RA_OF_ASC_NODE":32.4262,"ARG_OF_PERICENTER":330.6377,"MEAN_ANOMALY":29.406,"EPHEMERIS_TYPE":0,"CLASSIFICATION_TYPE":"U","NORAD_CAT_ID":62241,"ELEMENT_SET_NO":999,"REV_AT_EPOCH":11086,"BSTAR":0.00012264723,"MEAN_MOTION_DOT":9.1e-7,"MEAN_MOTION_DDOT":0},{"OBJECT_NAME":"QIANFAN-41","OBJECT_ID":"2024-232F","EPOCH":"2026-03-06T07:20:52.037376","MEAN_MOTION":13.51004887,"ECCENTRICITY":0.00126607,"INCLINATION":89.0059,"RA_OF_ASC_NODE":32.7602,"ARG_OF_PERICENTER":317.2539,"MEAN_ANOMALY":42.7627,"EPHEMERIS_TYPE":0,"CLASSIFICATION_TYPE":"U","NORAD_CAT_ID":62242,"ELEMENT_SET_NO":999,"REV_AT_EPOCH":11053,"BSTAR":0.0001410148,"MEAN_MOTION_DOT":1.03e-6,"MEAN_MOTION_DDOT":0},{"OBJECT_NAME":"QIANFAN-42","OBJECT_ID":"2024-232G","EPOCH":"2026-03-06T07:02:25.405440","MEAN_MOTION":14.24530946,"ECCENTRICITY":0.00152797,"INCLINATION":89.0057,"RA_OF_ASC_NODE":27.8106,"ARG_OF_PERICENTER":162.2459,"MEAN_ANOMALY":197.927,"EPHEMERIS_TYPE":0,"CLASSIFICATION_TYPE":"U","NORAD_CAT_ID":62243,"ELEMENT_SET_NO":999,"REV_AT_EPOCH":11326,"BSTAR":0.0002092101,"MEAN_MOTION_DOT":5.0e-6,"MEAN_MOTION_DDOT":0},{"OBJECT_NAME":"QIANFAN-43","OBJECT_ID":"2024-232H","EPOCH":"2026-03-06T05:28:13.864800","MEAN_MOTION":13.51004904,"ECCENTRICITY":0.0014339,"INCLINATION":89.0063,"RA_OF_ASC_NODE":32.837,"ARG_OF_PERICENTER":322.3753,"MEAN_ANOMALY":37.6393,"EPHEMERIS_TYPE":0,"CLASSIFICATION_TYPE":"U","NORAD_CAT_ID":62244,"ELEMENT_SET_NO":999,"REV_AT_EPOCH":7913,"BSTAR":0.00013872153,"MEAN_MOTION_DOT":1.01e-6,"MEAN_MOTION_DDOT":0},{"OBJECT_NAME":"QIANFAN-44","OBJECT_ID":"2024-232J","EPOCH":"2026-03-06T05:10:28.239168","MEAN_MOTION":13.51002779,"ECCENTRICITY":0.00124766,"INCLINATION":89.0061,"RA_OF_ASC_NODE":32.6477,"ARG_OF_PERICENTER":320.1813,"MEAN_ANOMALY":39.8421,"EPHEMERIS_TYPE":0,"CLASSIFICATION_TYPE":"U","NORAD_CAT_ID":62245,"ELEMENT_SET_NO":999,"REV_AT_EPOCH":11060,"BSTAR":9.5032811e-5,"MEAN_MOTION_DOT":7.3e-7,"MEAN_MOTION_DDOT":0},{"OBJECT_NAME":"QIANFAN-45","OBJECT_ID":"2024-232K","EPOCH":"2026-03-06T06:09:45.790272","MEAN_MOTION":13.5100048,"ECCENTRICITY":0.00131171,"INCLINATION":89.0065,"RA_OF_ASC_NODE":32.793,"ARG_OF_PERICENTER":319.2504,"MEAN_ANOMALY":40.7665,"EPHEMERIS_TYPE":0,"CLASSIFICATION_TYPE":"U","NORAD_CAT_ID":62246,"ELEMENT_SET_NO":999,"REV_AT_EPOCH":11053,"BSTAR":0.00010168234,"MEAN_MOTION_DOT":7.8e-7,"MEAN_MOTION_DDOT":0},{"OBJECT_NAME":"QIANFAN-46","OBJECT_ID":"2024-232L","EPOCH":"2026-03-06T04:58:35.961888","MEAN_MOTION":13.51003484,"ECCENTRICITY":0.00133488,"INCLINATION":89.0061,"RA_OF_ASC_NODE":32.8635,"ARG_OF_PERICENTER":325.367,"MEAN_ANOMALY":34.6611,"EPHEMERIS_TYPE":0,"CLASSIFICATION_TYPE":"U","NORAD_CAT_ID":62247,"ELEMENT_SET_NO":999,"REV_AT_EPOCH":11048,"BSTAR":0.00012532851,"MEAN_MOTION_DOT":9.3e-7,"MEAN_MOTION_DDOT":0},{"OBJECT_NAME":"QIANFAN-47","OBJECT_ID":"2024-232M","EPOCH":"2026-03-06T05:04:31.219680","MEAN_MOTION":13.51003333,"ECCENTRICITY":0.00137412,"INCLINATION":89.0057,"RA_OF_ASC_NODE":32.7928,"ARG_OF_PERICENTER":324.1861,"MEAN_ANOMALY":35.8367,"EPHEMERIS_TYPE":0,"CLASSIFICATION_TYPE":"U","NORAD_CAT_ID":62248,"ELEMENT_SET_NO":999,"REV_AT_EPOCH":11051,"BSTAR":0.00010820989,"MEAN_MOTION_DOT":8.2e-7,"MEAN_MOTION_DDOT":0},{"OBJECT_NAME":"QIANFAN-48","OBJECT_ID":"2024-232N","EPOCH":"2026-03-06T05:57:51.414336","MEAN_MOTION":13.51003468,"ECCENTRICITY":0.00160749,"INCLINATION":89.0061,"RA_OF_ASC_NODE":32.7942,"ARG_OF_PERICENTER":325.8386,"MEAN_ANOMALY":34.1729,"EPHEMERIS_TYPE":0,"CLASSIFICATION_TYPE":"U","NORAD_CAT_ID":62249,"ELEMENT_SET_NO":999,"REV_AT_EPOCH":11052,"BSTAR":0.00010220063,"MEAN_MOTION_DOT":7.8e-7,"MEAN_MOTION_DDOT":0},{"OBJECT_NAME":"QIANFAN-49","OBJECT_ID":"2024-232P","EPOCH":"2026-03-06T05:40:05.321280","MEAN_MOTION":13.51002626,"ECCENTRICITY":0.00129934,"INCLINATION":89.006,"RA_OF_ASC_NODE":32.8073,"ARG_OF_PERICENTER":321.4684,"MEAN_ANOMALY":38.5538,"EPHEMERIS_TYPE":0,"CLASSIFICATION_TYPE":"U","NORAD_CAT_ID":62250,"ELEMENT_SET_NO":999,"REV_AT_EPOCH":7911,"BSTAR":0.00012280166,"MEAN_MOTION_DOT":9.1e-7,"MEAN_MOTION_DDOT":0},{"OBJECT_NAME":"QIANFAN-50","OBJECT_ID":"2024-232Q","EPOCH":"2026-03-06T06:15:37.213632","MEAN_MOTION":13.51003624,"ECCENTRICITY":0.0014689,"INCLINATION":89.0065,"RA_OF_ASC_NODE":32.8175,"ARG_OF_PERICENTER":322.0199,"MEAN_ANOMALY":37.9916,"EPHEMERIS_TYPE":0,"CLASSIFICATION_TYPE":"U","NORAD_CAT_ID":62251,"ELEMENT_SET_NO":999,"REV_AT_EPOCH":7914,"BSTAR":0.00014110046,"MEAN_MOTION_DOT":1.03e-6,"MEAN_MOTION_DDOT":0},{"OBJECT_NAME":"QIANFAN-51","OBJECT_ID":"2024-232R","EPOCH":"2026-03-06T05:51:57.954528","MEAN_MOTION":13.51004357,"ECCENTRICITY":0.00123177,"INCLINATION":89.0059,"RA_OF_ASC_NODE":32.8078,"ARG_OF_PERICENTER":327.3947,"MEAN_ANOMALY":32.6442,"EPHEMERIS_TYPE":0,"CLASSIFICATION_TYPE":"U","NORAD_CAT_ID":62252,"ELEMENT_SET_NO":999,"REV_AT_EPOCH":7913,"BSTAR":0.00010953969,"MEAN_MOTION_DOT":8.3e-7,"MEAN_MOTION_DDOT":0}]
