QIANFAN-35              
1 61568U 24185S   26065.29164387  .00001172  00000+0  46569-3 0  9998
2 61568  88.9746  67.0521 0007401  30.2742 329.8879 14.28120428 82100
QIANFAN-36              
1 61569U 24185T   26065.29686881  .00000121  00000+0  15612-3 0  9995
2 61569  88.9718  72.3237 0007051 144.6227 215.5396 13.55613874 79249
QIANFAN-37              
1 62238U 24232B   26065.24033465  .00000091  00000+0  12256-3 0  9998
2 62238  89.0054  32.8952 0001731  97.2408 262.8940 13.51005404110444
QIANFAN-38              
1 62239U 24232C   26065.19090850  .00000093  00000+0  12517-3 0  9996
2 62239  89.0060  32.8217 0013369 321.5891  38.4307 13.51003973110493
QIANFAN-39              
1 62240U 24232D   26065.24221018  .00000526  00000+0  21667-3 0  9993
2 62240  89.0059  27.7567 0016652 157.0516 203.1425 14.25437056113285
QIANFAN-40              
1 62241U 24232E   26065.22382425  .00000091  00000+0  12265-3 0  9993
2 62241  89.0089  32.4262 0012676 330.6377  29.4060 13.51003178110867
QIANFAN-41              
1 62242U 24232F   26065.30615784  .00000103  00000+0  14101-3 0  9995
2 62242  89.0059  32.7602 0012660 317.2539  42.7627 13.51004887110539
QIANFAN-42              
1 62243U 24232G   26065.29334960  .00000500  00000+0  20921-3 0  9996
2 62243  89.0057  27.8106 0015279 162.2459 197.9270 14.24530946113261
QIANFAN-43              
1 62244U 24232H   26065.22793825  .00000101  00000+0  13872-3 0  9993
2 62244  89.0063  32.8370 0014339 322.3753  37.6393 13.51004904 79132
QIANFAN-44              
1 62245U 24232J   26065.21560462  .00000073  00000+0  95033-4 0  9990
2 62245  89.0061  32.6477 0012476 320.1813  39.8421 13.51002779110602
QIANFAN-45              
1 62246U 24232K   26065.25677998  .00000078  00000+0  10168-3 0  9998
2 62246  89.0065  32.7930 0013117 319.2504  40.7665 13.51000480110531
QIANFAN-46              
1 62247U 24232L   26065.20736067  .00000093  00000+0  12533-3 0  9992
2 62247  89.0061  32.8635 0013348 325.3670  34.6611 13.51003484110483
QIANFAN-47              
1 62248U 24232M   26065.21147245  .00000082  00000+0  10821-3 0  9994
2 62248  89.0057  32.7928 0013741 324.1861  35.8367 13.51003333110517
QIANFAN-48              
1 62249U 24232N   26065.24851174  .00000078  00000+0  10220-3 0  9999
2 62249  89.0061  32.7942 0016074 325.8386  34.1729 13.51003468110525
QIANFAN-49              
1 62250U 24232P   26065.23617270  .00000091  00000+0  12280-3 0  9990
2 62250  89.0060  32.8073 0012993 321.4684  38.5538 13.51002626 79111
QIANFAN-50              
1 62251U 24232Q   26065.26084738  .00000103  00000+0  14110-3 0  9999
2 62251  89.0065  32.8175 0014689 322.0199  37.9916 13.51003624 79147
QIANFAN-51              
1 62252U 24232R   26065.24442077  .00000083  00000+0  10954-3 0  9991
2 62252  89.0059  32.8078 0012317 327.3947  32.6442 13.51004357 79137
